CTC1_L_00411016-03
1 10062U 22218QC  26075.70034722  .00000000  00000+0  00000-0 0  9998
2 10062  50.0000 180.0000 0000000   0.0000   0.0000 12.77881384    15
CTC1_L_00411016-04
1 10063U 23041LO  26075.70034722  .00000000  00000+0  00000-0 0  9994
2 10063  50.0000 180.0000 0000000   0.0000  90.0000 12.77881384    15
CTC1_L_00411017-01
1 10064U 22836MJ  26075.70034722  .00000000  00000+0  00000-0 0  9996
2 10064  50.0000 192.0000 0000000   0.0000 192.0000 12.77881384    12
CTC1_L_00411017-02
1 10065U 23906EH  26075.70034722  .00000000  00000+0  00000-0 0  9996
2 10065  50.0000 192.0000 0000000   0.0000 282.0000 12.77881384    13
CTC1_L_00411017-03
1 10066U 23656PG  26075.70034722  .00000000  00000+0  00000-0 0  9999
2 10066  50.0000 192.0000 0000000   0.0000  12.0000 12.77881384    15
CTC1_L_00411017-04
1 10067U 23995KQ  26075.70034722  .00000000  00000+0  00000-0 0  9996
2 10067  50.0000 192.0000 0000000   0.0000 102.0000 12.77881384    16
CTC1_L_00411018-01
1 10068U 25310UP  26075.70034722  .00000000  00000+0  00000-0 0  9990
2 10068  50.0000 204.0000 0000000   0.0000 204.0000 12.77881384    14
CTC1_L_00411018-02
1 10069U 23962GV  26075.70034722  .00000000  00000+0  00000-0 0  9992
2 10069  50.0000 204.0000 0000000   0.0000 294.0000 12.77881384    14
CTC1_L_00411018-03
1 10070U 24325R   26075.70034722  .00000000  00000+0  00000-0 0  9998
2 10070  50.0000 204.0000 0000000   0.0000  24.0000 12.77881384    17
CTC1_L_00411018-04
1 10071U 22574EX  26075.70034722  .00000000  00000+0  00000-0 0  9993
2 10071  50.0000 204.0000 0000000   0.0000 114.0000 12.77881384    18
CTC1_L_00411019-01
1 10072U 24871AR  26075.70034722  .00000000  00000+0  00000-0 0  9996
2 10072  50.0000 216.0000 0000000   0.0000 216.0000 12.77881384    15
CTC1_L_00411019-02
1 10073U 25998JP  26075.70034722  .00000000  00000+0  00000-0 0  9998
2 10073  50.0000 216.0000 0000000   0.0000 306.0000 12.77881384    16
CTC1_L_00411019-03
1 10074U 26115NV  26075.70034722  .00000000  00000+0  00000-0 0  9991
2 10074  50.0000 216.0000 0000000   0.0000  36.0000 12.77881384    17
CTC1_L_00411019-04
1 10075U 26912IQ  26075.70034722  .00000000  00000+0  00000-0 0  9997
2 10075  50.0000 216.0000 0000000   0.0000 126.0000 12.77881384    18
CTC1_L_00411020-01
1 10076U 23909TZ  26075.70034722  .00000000  00000+0  00000-0 0  9991
2 10076  50.0000 228.0000 0000000   0.0000 228.0000 12.77881384    15
CTC1_L_00411020-02
1 10077U 22095MC  26075.70034722  .00000000  00000+0  00000-0 0  9997
2 10077  50.0000 228.0000 0000000   0.0000 318.0000 12.77881384    16
CTC1_L_00411020-03
1 10078U 26485MT  26075.70034722  .00000000  00000+0  00000-0 0  9995
2 10078  50.0000 228.0000 0000000   0.0000  48.0000 12.77881384    17
CTC1_L_00411020-04
1 10079U 24439IF  26075.70034722  .00000000  00000+0  00000-0 0  9993
2 10079  50.0000 228.0000 0000000   0.0000 138.0000 12.77881384    18
CTC1_L_00411021-01
1 10080U 24689SX  26075.70034722  .00000000  00000+0  00000-0 0  9992
2 10080  50.0000 240.0000 0000000   0.0000 240.0000 12.77881384    18
CTC1_L_00411021-02
1 10081U 24924FY  26075.70034722  .00000000  00000+0  00000-0 0  9995
2 10081  50.0000 240.0000 0000000   0.0000 330.0000 12.77881384    19
CTC1_L_00411021-03
1 10082U 23452KY  26075.70034722  .00000000  00000+0  00000-0 0  9991
2 10082  50.0000 240.0000 0000000   0.0000  60.0000 12.77881384    10
CTC1_L_00411021-04
1 10083U 24143CD  26075.70034722  .00000000  00000+0  00000-0 0  9990
2 10083  50.0000 240.0000 0000000   0.0000 150.0000 12.77881384    11
CTC1_L_00411022-01
1 10084U 23128TN  26075.70034722  .00000000  00000+0  00000-0 0  9993
2 10084  50.0000 252.0000 0000000   0.0000 252.0000 12.77881384    18
CTC1_L_00411022-02
1 10085U 23122ON  26075.70034722  .00000000  00000+0  00000-0 0  9998
2 10085  50.0000 252.0000 0000000   0.0000 342.0000 12.77881384    19
CTC1_L_00411022-03
1 10086U 23780GC  26075.70034722  .00000000  00000+0  00000-0 0  9999
2 10086  50.0000 252.0000 0000000   0.0000  72.0000 12.77881384    10
CTC1_L_00411022-04
1 10087U 23585PA  26075.70034722  .00000000  00000+0  00000-0 0  9993
2 10087  50.0000 252.0000 0000000   0.0000 162.0000 12.77881384    11
CTC1_L_00411023-01
1 10088U 22062HL  26075.70034722  .00000000  00000+0  00000-0 0  9993
2 10088  50.0000 264.0000 0000000   0.0000 264.0000 12.77881384    18
CTC1_L_00411023-02
1 10089U 24079JF  26075.70034722  .00000000  00000+0  00000-0 0  9994
2 10089  50.0000 264.0000 0000000   0.0000 354.0000 12.77881384    19
CTC1_L_00411023-03
1 10090U 26890WE  26075.70034722  .00000000  00000+0  00000-0 0  9999
2 10090  50.0000 264.0000 0000000   0.0000  84.0000 12.77881384    11
CTC1_L_00411023-04
1 10091U 25683ON  26075.70034722  .00000000  00000+0  00000-0 0  9999
2 10091  50.0000 264.0000 0000000   0.0000 174.0000 12.77881384    12
CTC1_L_00411024-01
1 10092U 22983UF  26075.70034722  .00000000  00000+0  00000-0 0  9990
2 10092  50.0000 276.0000 0000000   0.0000 276.0000 12.77881384    19
CTC1_L_00411024-02
1 10093U 26403LC  26075.70034722  .00000000  00000+0  00000-0 0  9992
2 10093  50.0000 276.0000 0000000   0.0000   6.0000 12.77881384    11
CTC1_L_00411024-03
1 10094U 25507M   26075.70034722  .00000000  00000+0  00000-0 0  9997
2 10094  50.0000 276.0000 0000000   0.0000  96.0000 12.77881384    11
CTC1_L_00411024-04
1 10095U 22011IL  26075.70034722  .00000000  00000+0  00000-0 0  9995
2 10095  50.0000 276.0000 0000000   0.0000 186.0000 12.77881384    12
CTC1_L_00411025-01
1 10096U 22593MB  26075.70034722  .00000000  00000+0  00000-0 0  9991
2 10096  50.0000 288.0000 0000000   0.0000 288.0000 12.77881384    19
CTC1_L_00411025-02
1 10097U 25759LV  26075.70034722  .00000000  00000+0  00000-0 0  9999
2 10097  50.0000 288.0000 0000000   0.0000  18.0000 12.77881384    11
CTC1_L_00411025-03
1 10098U 22990MB  26075.70034722  .00000000  00000+0  00000-0 0  9994
2 10098  50.0000 288.0000 0000000   0.0000 108.0000 12.77881384    12
CTC1_L_00411025-04
1 10099U 23202PH  26075.70034722  .00000000  00000+0  00000-0 0  9992
2 10099  50.0000 288.0000 0000000   0.0000 198.0000 12.77881384    12
CTC1_L_00411026-01
1 10100U 24400OU  26075.70034722  .00000000  00000+0  00000-0 0  9996
2 10100  50.0000 300.0000 0000000   0.0000 300.0000 12.77881384    15
CTC1_L_00411026-02
1 10101U 24870UJ  26075.70034722  .00000000  00000+0  00000-0 0  9998
2 10101  50.0000 300.0000 0000000   0.0000  30.0000 12.77881384    16
CTC1_L_00411026-03
1 10102U 23444CN  26075.70034722  .00000000  00000+0  00000-0 0  9995
2 10102  50.0000 300.0000 0000000   0.0000 120.0000 12.77881384    17
CTC1_L_00411026-04
1 10103U 25946SA  26075.70034722  .00000000  00000+0  00000-0 0  9995
2 10103  50.0000 300.0000 0000000   0.0000 210.0000 12.77881384    18
CTC1_L_00411027-01
1 10104U 22670TY  26075.70034722  .00000000  00000+0  00000-0 0  9997
2 10104  50.0000 312.0000 0000000   0.0000 312.0000 12.77881384    15
CTC1_L_00411027-02
1 10105U 24647LN  26075.70034722  .00000000  00000+0  00000-0 0  9994
2 10105  50.0000 312.0000 0000000   0.0000  42.0000 12.77881384    16
CTC1_L_00411027-03
1 10106U 24029IN  26075.70034722  .00000000  00000+0  00000-0 0  9999
2 10106  50.0000 312.0000 0000000   0.0000 132.0000 12.77881384    17
CTC1_L_00411027-04
1 10107U 22580IM  26075.70034722  .00000000  00000+0  00000-0 0  9990
2 10107  50.0000 312.0000 0000000   0.0000 222.0000 12.77881384    18
CTC1_L_00411028-01
1 10108U 24566VG  26075.70034722  .00000000  00000+0  00000-0 0  9997
2 10108  50.0000 324.0000 0000000   0.0000 324.0000 12.77881384    15
CTC1_L_00411028-02
1 10109U 22287OJ  26075.70034722  .00000000  00000+0  00000-0 0  9996
2 10109  50.0000 324.0000 0000000   0.0000  54.0000 12.77881384    16
CTC1_L_00411028-03
1 10110U 25506UK  26075.70034722  .00000000  00000+0  00000-0 0  9995
2 10110  50.0000 324.0000 0000000   0.0000 144.0000 12.77881384    18
CTC1_L_00411028-04
1 10111U 24271ML  26075.70034722  .00000000  00000+0  00000-0 0  9994
2 10111  50.0000 324.0000 0000000   0.0000 234.0000 12.77881384    19
CTC1_L_00411029-01
1 10112U 25588YU  26075.70034722  .00000000  00000+0  00000-0 0  9997
2 10112  50.0000 336.0000 0000000   0.0000 336.0000 12.77881384    16
CTC1_L_00411029-02
1 10113U 23378YF  26075.70034722  .00000000  00000+0  00000-0 0  9993
2 10113  50.0000 336.0000 0000000   0.0000  66.0000 12.77881384    17
CTC1_L_00411029-03
1 10114U 22449YO  26075.70034722  .00000000  00000+0  00000-0 0  9992
2 10114  50.0000 336.0000 0000000   0.0000 156.0000 12.77881384    18
CTC1_L_00411029-04
1 10115U 26941AX  26075.70034722  .00000000  00000+0  00000-0 0  9994
2 10115  50.0000 336.0000 0000000   0.0000 246.0000 12.77881384    19
CTC1_L_00411030-01
1 10116U 23494OR  26075.70034722  .00000000  00000+0  00000-0 0  9995
2 10116  50.0000 348.0000 0000000   0.0000 348.0000 12.77881384    16
CTC1_L_00411030-02
1 10117U 26047TG  26075.70034722  .00000000  00000+0  00000-0 0  9993
2 10117  50.0000 348.0000 0000000   0.0000  78.0000 12.77881384    17
CTC1_L_00411030-03
1 10118U 25672JO  26075.70034722  .00000000  00000+0  00000-0 0  9997
2 10118  50.0000 348.0000 0000000   0.0000 168.0000 12.77881384    18
CTC1_L_00411030-04
1 10119U 24801SW  26075.70034722  .00000000  00000+0  00000-0 0  9991
2 10119  50.0000 348.0000 0000000   0.0000 258.0000 12.77881384    19
